NORAD_CAT_ID,OBJECT_NAME,OBJECT_TYPE,EPOCH,MEAN_MOTION,ECCENTRICITY,INCLINATION,RA_OF_ASC_NODE,ARG_OF_PERICENTER,MEAN_ANOMALY,BSTAR,MEAN_MOTION_DOT,MEAN_MOTION_DDOT,TLE_LINE0,TLE_LINE1,TLE_LINE2,SEMIMAJOR_AXIS,PERIOD,APOGEE,PERIGEE,DECAYED
49445.0,STARLINK-3122,PAYLOAD,2024-03-10 21:25:33,15.08841305,0.0001438,53.216,251.2105,89.0365,271.0791,7.4073e-05,8.91e-06,0.0,0 STARLINK-3122,1 49445U 21104AP  24070.89274628  .00000891  00000-0  74073-4 0  9996,2 49445  53.2160 251.2105 0001438  89.0365 271.0791 15.08841305128742,6917.876,95.437,540.736,538.747,0.0
49445.0,STARLINK-3122,PAYLOAD,2024-03-11 05:22:28,15.08843251,0.0001387,53.2154,249.7235,88.5165,271.5986,0.00010976,1.459e-05,0.0,0 STARLINK-3122,1 49445U 21104AP  24071.22394560  .00001459  00000-0  10976-3 0  9994,2 49445  53.2154 249.7235 0001387  88.5165 271.5986 15.08843251128794,6917.87,95.437,540.695,538.776,0.0
49445.0,STARLINK-3122,PAYLOAD,2024-03-11 18:05:34,15.08842968,0.0001441,53.2161,247.3448,89.7346,270.3811,0.00018098,2.594e-05,0.0,0 STARLINK-3122,1 49445U 21104AP  24071.75386793  .00002594  00000-0  18098-3 0  9995,2 49445  53.2161 247.3448 0001441  89.7346 270.3811 15.08842968129954,6917.871,95.437,540.733,538.739,0.0
49445.0,STARLINK-3122,PAYLOAD,2024-03-11 21:16:20,15.08842928,0.0001627,53.2157,246.7498,89.7933,270.3246,0.00019772,2.86e-05,0.0,0 STARLINK-3122,1 49445U 21104AP  24071.88634808  .00002860  00000-0  19772-3 0  9998,2 49445  53.2157 246.7498 0001627  89.7933 270.3246 15.08842928128895,6917.871,95.437,540.862,538.611,0.0
49445.0,STARLINK-3122,PAYLOAD,2024-03-13 11:25:35,15.08838838,0.0001348,53.2158,239.6122,95.7777,264.3368,8.7139e-05,1.099e-05,0.0,0 STARLINK-3122,1 49445U 21104AP  24073.47611102  .00001099  00000-0  87139-4 0  9993,2 49445  53.2158 239.6122 0001348  95.7777 264.3368 15.08838838130216,6917.884,95.438,540.681,538.816,0.0
49445.0,STARLINK-3122,PAYLOAD,2024-03-13 17:47:08,15.08836135,0.0001451,53.2143,238.4234,88.6669,271.4489,1.8202e-05,2e-08,0.0,0 STARLINK-3122,1 49445U 21104AP  24073.74107299  .00000002  00000-0  18202-4 0  9998,2 49445  53.2143 238.4234 0001451  88.6669 271.4489 15.08836135129171,6917.892,95.438,540.761,538.753,0.0
49445.0,STARLINK-3122,PAYLOAD,2024-03-14 03:19:27,15.08835337,0.0001462,53.2189,236.6415,87.0286,273.0874,0.00011288,1.509e-05,0.0,0 STARLINK-3122,1 49445U 21104AP  24074.13851345  .00001509  00000-0  11288-3 0  9999,2 49445  53.2189 236.6415 0001462  87.0286 273.0874 15.08835337129238,6917.895,95.438,540.771,538.748,0.0
49445.0,STARLINK-3122,PAYLOAD,2024-03-14 17:37:55,15.08839418,0.0001758,53.2177,233.9651,91.1129,269.0065,7.0655e-05,8.37e-06,0.0,0 STARLINK-3122,1 49445U 21104AP  24074.73467384  .00000837  00000-0  70655-4 0  9998,2 49445  53.2177 233.9651 0001758  91.1129 269.0065 15.08839418130409,6917.882,95.438,540.963,538.531,0.0
49445.0,STARLINK-3122,PAYLOAD,2024-03-15 11:07:10,15.08840647,0.0001,53.2163,230.6949,83.9459,276.1647,0.00012017,1.625e-05,0.0,0 STARLINK-3122,1 49445U 21104AP  24075.46331224  .00001625  00000-0  12017-3 0  9995,2 49445  53.2163 230.6949 0001000  83.9459 276.1647 15.08840647129435,6917.878,95.438,540.435,539.052,0.0
49445.0,STARLINK-3122,PAYLOAD,2024-03-16 14:08:44,15.08816888,0.0001347,53.2161,225.6411,72.1666,287.9473,0.00064379,9.966e-05,0.0,0 STARLINK-3122,1 49445U 21104AP  24076.58940880  .00009966  00000-0  64379-3 0  9997,2 49445  53.2161 225.6411 0001347  72.1666 287.9473 15.08816888129601,6917.951,95.439,540.748,538.884,0.0
49445.0,STARLINK-3122,PAYLOAD,2024-03-16 18:54:53,15.08839784,0.000145,53.2171,224.7437,76.5082,283.6071,5.2784e-05,5.52e-06,0.0,0 STARLINK-3122,1 49445U 21104AP  24076.78811766  .00000552  00000-0  52784-4 0  9999,2 49445  53.2171 224.7437 0001450  76.5082 283.6071 15.08839784130716,6917.881,95.438,540.749,538.743,0.0
49445.0,STARLINK-3122,PAYLOAD,2024-03-17 13:59:30,15.08842695,0.000137,53.2165,221.177,70.3142,289.7998,7.3163e-05,8.77e-06,0.0,0 STARLINK-3122,1 49445U 21104AP  24077.58299528  .00000877  00000-0  73163-4 0  9998,2 49445  53.2165 221.1770 0001370  70.3142 289.7998 15.08842695129752,6917.872,95.437,540.685,538.789,0.0
49445.0,STARLINK-3122,PAYLOAD,2024-03-17 18:45:39,15.08848931,0.0001532,53.2176,220.2818,74.246,285.8701,0.00010473,1.38e-05,0.0,0 STARLINK-3122,1 49445U 21104AP  24077.78170959  .00001380  00000-0  10473-3 0  9990,2 49445  53.2176 220.2818 0001532  74.2460 285.8701 15.08848931130865,6917.853,95.437,540.778,538.658,0.0
49445.0,STARLINK-3122,PAYLOAD,2024-03-18 18:36:27,15.08840944,0.0001555,53.2182,215.8197,77.739,282.3776,8.1655e-05,1.012e-05,0.0,0 STARLINK-3122,1 49445U 21104AP  24078.77531547  .00001012  00000-0  81655-4 0  9997,2 49445  53.2182 215.8197 0001555  77.7390 282.3776 15.08840944131015,6917.878,95.437,540.818,538.667,0.0
49445.0,STARLINK-3122,PAYLOAD,2024-03-19 12:05:41,15.08850869,0.0001338,53.217,212.5553,90.3431,269.7714,5.7216e-05,6.23e-06,0.0,0 STARLINK-3122,1 49445U 21104AP  24079.50394812  .00000623  00000-0  57216-4 0  9994,2 49445  53.2170 212.5553 0001338  90.3431 269.7714 15.08850869130048,6917.847,95.437,540.638,538.787,0.0
49445.0,STARLINK-3122,PAYLOAD,2024-03-19 15:16:27,15.08853908,0.000156,53.2173,211.9606,78.9942,281.1225,8.9059e-05,1.13e-05,0.0,0 STARLINK-3122,1 49445U 21104AP  24079.63642519  .00001130  00000-0  89059-4 0  9992,2 49445  53.2173 211.9606 0001560  78.9942 281.1225 15.08853908131143,6917.838,95.437,540.782,538.624,0.0
49445.0,STARLINK-3122,PAYLOAD,2024-03-20 13:31:51,15.08838016,0.0001371,53.2166,207.7982,109.2223,250.8918,2.6327e-05,1.31e-06,0.0,0 STARLINK-3122,1 49445U 21104AP  24080.56379560  .00000131  00000-0  26327-4 0  9998,2 49445  53.2166 207.7982 0001371 109.2223 250.8918 15.08838016130206,6917.886,95.438,540.7,538.803,0.0
49445.0,STARLINK-3122,PAYLOAD,2024-03-20 15:07:15,15.08835979,0.0001452,53.217,207.5004,113.2225,246.892,2.9674e-06,-2.41e-06,0.0,0 STARLINK-3122,1 49445U 21104AP  24080.63003740 -.00000241  00000-0  29674-5 0  9992,2 49445  53.2170 207.5004 0001452 113.2225 246.8920 15.08835979131294,6917.893,95.438,540.762,538.753,0.0
49445.0,STARLINK-3122,PAYLOAD,2024-03-21 14:58:02,15.08839431,0.0001358,53.2174,203.0437,78.7043,281.4101,4.8667e-05,4.87e-06,0.0,0 STARLINK-3122,1 49445U 21104AP  24081.62363969  .00000487  00000-0  48667-4 0  9997,2 49445  53.2174 203.0437 0001358  78.7043 281.4101 15.08839431130367,6917.882,95.438,540.687,538.808,0.0
49445.0,STARLINK-3122,PAYLOAD,2024-03-22 11:38:03,15.08824351,0.0001269,53.2156,199.1745,91.9039,268.2098,6.8292e-05,7.99e-06,0.0,0 STARLINK-3122,1 49445U 21104AP  24082.48476842  .00000799  00000-0  68292-4 0  9999,2 49445  53.2156 199.1745 0001269  91.9039 268.2098 15.08824351131574,6917.928,95.439,540.671,538.915,0.0
49445.0,STARLINK-3122,PAYLOAD,2024-03-22 13:13:27,15.08826815,0.0001335,53.2157,198.8772,97.5164,262.598,9.7756e-05,1.268e-05,0.0,0 STARLINK-3122,1 49445U 21104AP  24082.55100774  .00001268  00000-0  97756-4 0  9994,2 49445  53.2157 198.8772 0001335  97.5164 262.5980 15.08826815130502,6917.921,95.438,540.709,538.862,0.0
49445.0,STARLINK-3122,PAYLOAD,2024-03-23 13:04:13,15.08844302,0.000158,53.2169,194.4139,115.1333,244.9824,0.0001495,2.092e-05,0.0,0 STARLINK-3122,1 49445U 21104AP  24083.54460144  .00002092  00000-0  14950-3 0  9994,2 49445  53.2169 194.4139 0001580 115.1333 244.9824 15.08844302131739,6917.867,95.437,540.825,538.639,0.0
49445.0,STARLINK-3122,PAYLOAD,2024-03-23 14:39:36,15.08848784,0.0001308,53.2168,194.1161,93.3803,266.7339,0.00024154,3.559e-05,0.0,0 STARLINK-3122,1 49445U 21104AP  24083.61084049  .00003559  00000-0  24154-3 0  9994,2 49445  53.2168 194.1161 0001308  93.3803 266.7339 15.08848784130669,6917.854,95.437,540.623,538.814,0.0
49445.0,STARLINK-3122,PAYLOAD,2024-03-24 12:55:00,15.08845736,0.0001795,53.2178,189.9551,58.3964,301.7203,0.00027202,4.044e-05,0.0,0 STARLINK-3122,1 49445U 21104AP  24084.53820496  .00004044  00000-0  27202-3 0  9997,2 49445  53.2178 189.9551 0001795  58.3964 301.7203 15.08845736131883,6917.863,95.437,540.97,538.486,0.0
49445.0,STARLINK-3122,PAYLOAD,2024-03-24 14:30:23,15.08846816,0.0001801,53.218,189.6578,62.59,297.5275,0.0002765,4.116e-05,0.0,0 STARLINK-3122,1 49445U 21104AP  24084.60444422  .00004116  00000-0  27650-3 0  9993,2 49445  53.2180 189.6578 0001801  62.5900 297.5275 15.08846816130810,6917.86,95.437,540.97,538.479,0.0
49445.0,STARLINK-3122,PAYLOAD,2024-03-25 14:21:10,15.08856902,0.0001774,53.2173,185.197,81.8765,278.2429,0.00034794,5.256e-05,0.0,0 STARLINK-3122,1 49445U 21104AP  24085.59803625  .00005256  00000-0  34794-3 0  9999,2 49445  53.2173 185.1970 0001774  81.8765 278.2429 15.08856902132042,6917.829,95.436,540.921,538.467,0.0
49445.0,STARLINK-3122,PAYLOAD,2024-03-26 12:36:35,15.08811851,0.0001904,53.2169,181.0339,106.4688,253.6514,-0.00046727,-7.711e-05,0.0,0 STARLINK-3122,1 49445U 21104AP  24086.52541364 -.00007711  00000-0 -46727-3 0  9991,2 49445  53.2169 181.0339 0001904 106.4688 253.6514 15.08811851132185,6917.966,95.439,541.149,538.514,0.0
49445.0,STARLINK-3122,PAYLOAD,2024-03-26 23:44:18,15.0881656,0.0001963,53.2183,178.9537,105.3708,254.7501,-8.9737e-05,-1.715e-05,0.0,0 STARLINK-3122,1 49445U 21104AP  24086.98910073 -.00001715  00000-0 -89737-4 0  9995,2 49445  53.2183 178.9537 0001963 105.3708 254.7501 15.08816560132250,6917.952,95.439,541.175,538.459,0.0
49445.0,STARLINK-3122,PAYLOAD,2024-03-27 12:27:22,15.08847528,0.000205,53.2167,176.5733,108.2744,251.8471,0.00047117,7.22e-05,0.0,0 STARLINK-3122,1 49445U 21104AP  24087.51901351  .00007220  00000-0  47117-3 0  9994,2 49445  53.2167 176.5733 0002050 108.2744 251.8471 15.08847528132335,6917.857,95.437,541.141,538.304,0.0
49445.0,STARLINK-3122,PAYLOAD,2024-03-28 12:18:10,15.08838529,0.0001637,53.2165,172.1141,103.5708,256.5466,0.00043757,6.682e-05,0.0,0 STARLINK-3122,1 49445U 21104AP  24088.51261652  .00006682  00000-0  43757-3 0  9995,2 49445  53.2165 172.1141 0001637 103.5708 256.5466 15.08838529132489,6917.885,95.438,540.882,538.617,0.0
